{"type": "FeatureCollection", "features": [ {"type": "Feature", "properties": {"norad_id": 38169, "name": "FENGYUN 1C DEB", "group": "fengyun-1c-debris", "lat": 0.6406516703360721, "lon": -50.64589589713999, "alt_km": 663.4912186022366, "timestamp": "2025-12-02T07:10:09.405226+00:00", "meta": {"OBJECT_NAME": "FENGYUN 1C DEB", "OBJECT_ID": "1999-025ERS", "EPOCH": "2025-11-22T03:51:43.920000", "MEAN_MOTION": 14.70462609, "ECCENTRICITY": 0.00311315, "INCLINATION": 98.9783, "RA_OF_ASC_NODE": 298.2991, "ARG_OF_PERICENTER": 127.7379, "MEAN_ANOMALY": 232.6652, "EPHEMERIS_TYPE": 0, "CLASSIFICATION_TYPE": "U", "NORAD_CAT_ID": 38169, "ELEMENT_SET_NO": 999, "REV_AT_EPOCH": 60966, "BSTAR": 0.0026738914, "MEAN_MOTION_DOT": 0.00016302, "MEAN_MOTION_DDOT": 0}, "tle": {"line1": "1 38169U 99025ERS 25326.16092500  .00016302  00000+0  26739-2 0  9993", "line2": "2 38169  98.9783 298.2991 0031131 127.7379 232.6652 14.70462609609660"}}, "geometry": {"type": "Point", "coordinates": [-50.64589589713999, 0.6406516703360721]}}, {"type": "Feature", "properties": {"norad_id": 38173, "name": "FENGYUN 1C DEB", "group": "fengyun-1c-debris", "lat": 28.141524681502844, "lon": 60.893730764804914, "alt_km": 652.0352971675675, "timestamp": "2025-12-02T07:10:09.405235+00:00", "meta": {"OBJECT_NAME": "FENGYUN 1C DEB", "OBJECT_ID": "1999-025ERW", "EPOCH": "2025-11-24T11:18:51.497568", "MEAN_MOTION": 14.37024249, "ECCENTRICITY": 0.01622994, "INCLINATION": 98.9991, "RA_OF_ASC_NODE": 227.8463, "ARG_OF_PERICENTER": 166.3393, "MEAN_ANOMALY": 194.2263, "EPHEMERIS_TYPE": 0, "CLASSIFICATION_TYPE": "U", "NORAD_CAT_ID": 38173, "ELEMENT_SET_NO": 999, "REV_AT_EPOCH": 60381, "BSTAR": 0.00095115, "MEAN_MOTION_DOT": 3.231e-05, "MEAN_MOTION_DDOT": 0}, "tle": {"line1": "1 38173U 99025ERW 25328.47142937  .00003231  00000+0  95115-3 0  9996", "line2": "2 38173  98.9991 227.8463 0162299 166.3393 194.2263 14.37024249603812"}}, "geometry": {"type": "Point", "coordinates": [60.893730764804914, 28.141524681502844]}}, {"type": "Feature", "properties": {"norad_id": 38491, "name": "FENGYUN 1C DEB", "group": "fengyun-1c-debris", "lat": 74.84135653908584, "lon": -52.69681936062814, "alt_km": 746.5838128148125, "timestamp": "2025-12-02T07:10:09.405246+00:00", "meta": {"OBJECT_NAME": "FENGYUN 1C DEB", "OBJECT_ID": "1999-025ESA", "EPOCH": "2025-11-07T18:37:17.530176", "MEAN_MOTION": 13.96213514, "ECCENTRICITY": 0.02268827, "INCLINATION": 98.9363, "RA_OF_ASC_NODE": 318.985, "ARG_OF_PERICENTER": 122.5823, "MEAN_ANOMALY": 239.7468, "EPHEMERIS_TYPE": 0, "CLASSIFICATION_TYPE": "U", "NORAD_CAT_ID": 38491, "ELEMENT_SET_NO": 999, "REV_AT_EPOCH": 65972, "BSTAR": 0.00032180703, "MEAN_MOTION_DOT": 5.09e-06, "MEAN_MOTION_DDOT": 0}, "tle": {"line1": "1 38491U 99025ESA 25311.77589734  .00000509  00000+0  32181-3 0  9993", "line2": "2 38491  98.9363 318.9850 0226882 122.5823 239.7468 13.96213514659723"}}, "geometry": {"type": "Point", "coordinates": [-52.69681936062814, 74.84135653908584]}}, {"type": "Feature", "properties": {"norad_id": 38492, "name": "FENGYUN 1C DEB", "group": "fengyun-1c-debris", "lat": 78.45649956182734, "lon": -83.33223499998016, "alt_km": 876.8808607003903, "timestamp": "2025-12-02T07:10:09.405256+00:00", "meta": {"OBJECT_NAME": "FENGYUN 1C DEB", "OBJECT_ID": "1999-025ESB", "EPOCH": "2025-11-07T22:24:32.618304", "MEAN_MOTION": 13.93045648, "ECCENTRICITY": 0.02334575, "INCLINATION": 98.6097, "RA_OF_ASC_NODE": 26.0841, "ARG_OF_PERICENTER": 245.4391, "MEAN_ANOMALY": 112.2279, "EPHEMERIS_TYPE": 0, "CLASSIFICATION_TYPE": "U", "NORAD_CAT_ID": 38492, "ELEMENT_SET_NO": 999, "REV_AT_EPOCH": 55519, "BSTAR": 0.0058484062, "MEAN_MOTION_DOT": 9.486e-05, "MEAN_MOTION_DDOT": 0}, "tle": {"line1": "1 38492U 99025ESB 25311.93371086  .00009486  00000+0  58484-2 0  9997", "line2": "2 38492  98.6097  26.0841 0233457 245.4391 112.2279 13.93045648555192"}}, "geometry": {"type": "Point", "coordinates": [-83.33223499998016, 78.45649956182734]}}, {"type": "Feature", "properties": {"norad_id": 38493, "name": "FENGYUN 1C DEB", "group": "fengyun-1c-debris", "lat": -73.68487702939666, "lon": -30.51482173717178, "alt_km": 724.3295235251089, "timestamp": "2025-12-02T07:10:09.405266+00:00", "meta": {"OBJECT_NAME": "FENGYUN 1C DEB", "OBJECT_ID": "1999-025ESC", "EPOCH": "2025-12-01T03:19:18.848640", "MEAN_MOTION": 13.62296981, "ECCENTRICITY": 0.04264899, "INCLINATION": 99.0772, "RA_OF_ASC_NODE": 295.2979, "ARG_OF_PERICENTER": 275.3931, "MEAN_ANOMALY": 79.8712, "EPHEMERIS_TYPE": 0, "CLASSIFICATION_TYPE": "U", "NORAD_CAT_ID": 38493, "ELEMENT_SET_NO": 999, "REV_AT_EPOCH": 56340, "BSTAR": 0.00048230888, "MEAN_MOTION_DOT": 6.45e-06, "MEAN_MOTION_DDOT": 0}, "tle": {"line1": "1 38493U 99025ESC 25335.13841260  .00000645  00000+0  48231-3 0  9990", "line2": "2 38493  99.0772 295.2979 0426489 275.3931  79.8712 13.62296981563408"}}, "geometry": {"type": "Point", "coordinates": [-30.51482173717178, -73.68487702939666]}}, {"type": "Feature", "properties": {"norad_id": 38494, "name": "FENGYUN 1C DEB", "group": "fengyun-1c-debris", "lat": -35.12251344566701, "lon": -66.72487905840254, "alt_km": 813.2995411756865, "timestamp": "2025-12-02T07:10:09.405277+00:00", "meta": {"OBJECT_NAME": "FENGYUN 1C DEB", "OBJECT_ID": "1999-025ESD", "EPOCH": "2025-11-30T02:08:48.245856", "MEAN_MOTION": 13.99599294, "ECCENTRICITY": 0.0387254, "INCLINATION": 98.433, "RA_OF_ASC_NODE": 285.2437, "ARG_OF_PERICENTER": 44.6936, "MEAN_ANOMALY": 318.476, "EPHEMERIS_TYPE": 0, "CLASSIFICATION_TYPE": "U", "NORAD_CAT_ID": 38494, "ELEMENT_SET_NO": 999, "REV_AT_EPOCH": 6977, "BSTAR": 0.0054391, "MEAN_MOTION_DOT": 0.00015208, "MEAN_MOTION_DDOT": 0}, "tle": {"line1": "1 38494U 99025ESD 25334.08944729  .00015208  00000+0  54391-2 0  9992", "line2": "2 38494  98.4330 285.2437 0387254  44.6936 318.4760 13.99599294 69777"}}, "geometry": {"type": "Point", "coordinates": [-66.72487905840254, -35.12251344566701]}}, {"type": "Feature", "properties": {"norad_id": 38496, "name": "FENGYUN 1C DEB", "group": "fengyun-1c-debris", "lat": -20.73863312022304, "lon": 162.94957665802337, "alt_km": 919.30796060186, "timestamp": "2025-12-02T07:10:09.405287+00:00", "meta": {"OBJECT_NAME": "FENGYUN 1C DEB", "OBJECT_ID": "1999-025ESF", "EPOCH": "2025-11-21T06:14:04.243776", "MEAN_MOTION": 14.09910223, "ECCENTRICITY": 0.00783122, "INCLINATION": 98.762, "RA_OF_ASC_NODE": 335.5484, "ARG_OF_PERICENTER": 67.5314, "MEAN_ANOMALY": 293.4126, "EPHEMERIS_TYPE": 0, "CLASSIFICATION_TYPE": "U", "NORAD_CAT_ID": 38496, "ELEMENT_SET_NO": 999, "REV_AT_EPOCH": 80718, "BSTAR": 0.00099539788, "MEAN_MOTION_DOT": 1.761e-05, "MEAN_MOTION_DDOT": 0}, "tle": {"line1": "1 38496U 99025ESF 25325.25977134  .00001761  00000+0  99540-3 0  9994", "line2": "2 38496  98.7620 335.5484 0078312  67.5314 293.4126 14.09910223807185"}}, "geometry": {"type": "Point", "coordinates": [162.94957665802337, -20.73863312022304]}}, {"type": "Feature", "properties": {"norad_id": 38498, "name": "FENGYUN 1C DEB", "group": "fengyun-1c-debris", "lat": -48.240193576733866, "lon": 8.74410400009978, "alt_km": 1623.4533590431593, "timestamp": "2025-12-02T07:10:09.405297+00:00", "meta": {"OBJECT_NAME": "FENGYUN 1C DEB", "OBJECT_ID": "1999-025ESH", "EPOCH": "2025-11-28T07:08:06.502272", "MEAN_MOTION": 12.96576725, "ECCENTRICITY": 0.05570408, "INCLINATION": 99.7006, "RA_OF_ASC_NODE": 354.1331, "ARG_OF_PERICENTER": 105.0179, "MEAN_ANOMALY": 261.3245, "EPHEMERIS_TYPE": 0, "CLASSIFICATION_TYPE": "U", "NORAD_CAT_ID": 38498, "ELEMENT_SET_NO": 999, "REV_AT_EPOCH": 53556, "BSTAR": 0.0025758927, "MEAN_MOTION_DOT": 1.475e-05, "MEAN_MOTION_DDOT": 0}, "tle": {"line1": "1 38498U 99025ESH 25332.29729748  .00001475  00000+0  25759-2 0  9996", "line2": "2 38498  99.7006 354.1331 0557040 105.0179 261.3245 12.96576725535566"}}, "geometry": {"type": "Point", "coordinates": [8.74410400009978, -48.240193576733866]}}, {"type": "Feature", "properties": {"norad_id": 38510, "name": "FENGYUN 1C DEB", "group": "fengyun-1c-debris", "lat": 40.30740076047353, "lon": -21.59870240759517, "alt_km": 898.0269178963044, "timestamp": "2025-12-02T07:10:09.405308+00:00", "meta": {"OBJECT_NAME": "FENGYUN 1C DEB", "OBJECT_ID": "1999-025ESV", "EPOCH": "2025-11-26T06:32:42.236448", "MEAN_MOTION": 14.13269737, "ECCENTRICITY": 0.00981735, "INCLINATION": 98.6025, "RA_OF_ASC_NODE": 339.985, "ARG_OF_PERICENTER": 196.9618, "MEAN_ANOMALY": 162.8266, "EPHEMERIS_TYPE": 0, "CLASSIFICATION_TYPE": "U", "NORAD_CAT_ID": 38510, "ELEMENT_SET_NO": 999, "REV_AT_EPOCH": 88437, "BSTAR": 0.0006714866, "MEAN_MOTION_DOT": 1.276e-05, "MEAN_MOTION_DDOT": 0}, "tle": {"line1": "1 38510U 99025ESV 25330.27271107  .00001276  00000+0  67149-3 0  9997", "line2": "2 38510  98.6025 339.9850 0098173 196.9618 162.8266 14.13269737884378"}}, "geometry": {"type": "Point", "coordinates": [-21.59870240759517, 40.30740076047353]}}, {"type": "Feature", "properties": {"norad_id": 38512, "name": "FENGYUN 1C DEB", "group": "fengyun-1c-debris", "lat": 59.194725523982655, "lon": 53.69190062752305, "alt_km": 817.9561013053108, "timestamp": "2025-12-02T07:10:09.405318+00:00", "meta": {"OBJECT_NAME": "FENGYUN 1C DEB", "OBJECT_ID": "1999-025ESX", "EPOCH": "2025-11-24T15:04:33.900960", "MEAN_MOTION": 13.73922037, "ECCENTRICITY": 0.02258852, "INCLINATION": 98.3776, "RA_OF_ASC_NODE": 212.6517, "ARG_OF_PERICENTER": 154.1881, "MEAN_ANOMALY": 207.075, "EPHEMERIS_TYPE": 0, "CLASSIFICATION_TYPE": "U", "NORAD_CAT_ID": 38512, "ELEMENT_SET_NO": 999, "REV_AT_EPOCH": 59321, "BSTAR": 0.0011065478, "MEAN_MOTION_DOT": 1.212e-05, "MEAN_MOTION_DDOT": 0}, "tle": {"line1": "1 38512U 99025ESX 25328.62817015  .00001212  00000+0  11065-2 0  9994", "line2": "2 38512  98.3776 212.6517 0225885 154.1881 207.0750 13.73922037593211"}}, "geometry": {"type": "Point", "coordinates": [53.69190062752305, 59.194725523982655]}}]}